stk.v.4.3 

BEGIN Ephemeris 
 
NumberOfEphemerisPoints		146 
ScenarioEpoch	    3 Sep 2020 20:32:39.420365096 
InterpolationMethod		Lagrange 
InterpolationOrder		5 
CentralBody				Earth 
CoordinateSystem			TEME 
CoordinateSystemEpoch	  3 Sep 2020 20:32:39.420365096 
DistanceUnit			Kilometers 
 
EphemerisTimePosVel 
 
       0.00000000   -6560.50473050    2864.91629523       0.03555444 -0.178563204 -0.432745372  7.448875127
 END Ephemeris 
